#cP2023  2  3  0  0  0.00000000      96 ORBIT IGS20 HLM  IGS
## 2247 432000.00000000   900.00000000 59978 0.0000000000000
+   32   G01G02G03G04G05G06G07G08G09G10G11G12G13G14G15G16G17
+        G18G19G20G21G22G23G24G25G26G27G28G29G30G31G32  0  0
+          0  0  0  0  0  0  0  0  0  0  0  0  0  0  0  0  0
+          0  0  0  0  0  0  0  0  0  0  0  0  0  0  0  0  0
+          0  0  0  0  0  0  0  0  0  0  0  0  0  0  0  0  0
++         2  2  2  3  2  2  2  2  2  2  2  2  2  2  2  2  2
++         2  2  2  2  2  2  2  2  2  2  0  2  2  2  2  0  0
++         0  0  0  0  0  0  0  0  0  0  0  0  0  0  0  0  0
++         0  0  0  0  0  0  0  0  0  0  0  0  0  0  0  0  0
++         0  0  0  0  0  0  0  0  0  0  0  0  0  0  0  0  0
%c G  cc GPS ccc cccc cccc cccc cccc ccccc ccccc ccccc ccccc
%c cc cc ccc ccc cccc cccc cccc cccc ccccc ccccc ccccc ccccc
%f  1.2500000  1.025000000  0.00000000000  0.000000000000000
%f  0.0000000  0.000000000  0.00000000000  0.000000000000000
%i    0    0    0    0      0      0      0      0         0
%i    0    0    0    0      0      0      0      0         0
/* RAPID ORBIT COMBINATION FROM WEIGHTED AVERAGE OF:        
/* cod emr esa gfz grg jpl ngs sio usn whu                  
/* REFERENCED TO IGS TIME (IGST) AND TO WEIGHTED MEAN POLE: 
/* PCV:IGS20_2233 OL/AL:FES2014b NONE     Y  ORB:CMB CLK:CMB
*  2023  2  3 12 45  0.00000000
PG01 -19233.765356 -10080.416880  15216.733929    216.763922  4  6  7 114       
PG02  19472.888768   5273.329178 -16525.795853   -623.280320  4  4  2  99       
PG03 -15910.929448    649.833027  21115.191487   -367.106905  8  5  4 100       
PG04 -26364.363793   -751.301618   3615.323641    -35.379901 10  7  7  82       
PG05   9057.422992  14984.909393 -20105.079258   -114.481948  4  5  4  93       
PG06   1622.707753  20878.424845  16350.015308    567.812610  4  5  4 121       
PG07 -15131.049974   4617.740482 -20963.078046    247.713998  7  8  3 108       
PG08 -21261.145202  -7454.020419 -14423.136532   -106.710193  8  7  5 117       
PG09 -24319.702964   8084.370182  -7143.632836   -224.995446  7  8  7  89       
PG10  11067.280338 -23946.012778   -499.929685    -23.143781  9  6  3  91       
PG11  11456.081460  23548.956633   4554.881262    -94.561754  6  5  7  99       
PG12  15487.848813   2082.642609  21183.203095   -335.881230  3     2 104       
PG13  14439.660918  13078.203223 -18315.895371    470.087778  4  3  5  68       
PG14 -13491.653952  22595.791089  -3028.687096    -35.622492  6  5  3  73       
PG15  22065.530895   5605.814575 -14350.447412     10.223574 11  2  9  87       
PG16  -5421.027721 -17577.135481 -19283.875495   -521.615694 10  5  7  90       
PG17 -14919.037013  12939.938552  18242.632874    697.656121  9  5  4  88       
PG18  12462.659380  -8254.139268 -21951.547875   -125.362819  6  6  6 105       
PG19  -3301.001529  14658.414495  21649.139933    272.755312  5  5  5 117       
PG20   2795.059676  23579.436401 -12085.986618    453.012228  8  3  6  80       
PG21 -20837.016250 -15255.786409   8396.299485    153.797627  8  5  6  95       
PG22   -770.298271 -15363.619840  22087.346183    419.455911  7  4  5 109       
PG23  15925.295583 -17701.043645 -11613.639143      4.668198 10  5  6 104       
PG24  21045.270868  12199.838824  10794.212924    -58.023500  6  2  6  81       
PG25  17426.636564  -8532.118911  17704.036747    416.942854  5  4  5  92       
PG26   2510.651703 -24854.204432  -8612.835738    241.135244  6  6  5 108       
PG27 -11007.987281 -13094.548500 -20655.951816    111.247294  9  6  6 111       
PG28   -416.806055 -20162.507445  17252.514586 999999.999999                    
PG29  25930.855806  -3781.730725  -4621.223571   -584.074477  9  7  5  98       
PG30  -5946.326322  16683.716821 -19623.488818   -531.472310  9  4  6 107       
PG31  -2570.191293 -21803.379675  14448.156247   -208.202347  6  4  6 101       
PG32  11179.705268 -14734.720809  19150.385404   -384.702913  6  4  3  90       
*  2023  2  3 13  0  0.00000000
PG01 -20122.564355 -11471.321829  12994.851236    216.759892  5  7  7 111       
PG02  20600.690806   6801.051706 -14535.615811   -623.278020  3  3  3 113       
PG03 -15015.586821  -1656.442634  21714.009462   -367.103840  8  6  3 107       
PG04 -25820.612735  -1041.894456   6392.211360    -35.372717 11  7  8 105       
PG05   8207.755140  17012.647605 -18792.434074   -114.483323  6  5  4  92       
PG06    345.148344  19386.321295  18178.029679    567.817093  4  5  4 117       
PG07 -16573.563049   2644.430537 -20260.191674    247.708075  7  7  3 112       
PG08 -19565.953348  -7885.939456 -16424.615527   -106.713119  8  7  5 112       
PG09 -25002.859167   7933.362962  -4402.891382   -224.989299  7  8  7  90       
PG10  11190.824582 -23632.637930  -3395.194208    -23.145689  9  6  4  94       
PG11  10879.015916  23125.880028   7308.081598    -94.570439  6  5  7 107       
PG12  14411.473439   4347.310138  21598.688556   -335.885216  5     2  99       
PG13  12303.105254  13173.876261 -19747.455965    470.093539  5  3  5  90       
PG14 -13548.029610  22012.359546  -5809.078490    -35.614904  6  4  3  98       
PG15  20502.218621   6256.399973 -16303.510360     10.227207 11  3  9  83       
PG16  -4336.498022 -19354.546648 -17730.703476   -521.614363 10  5  7 106       
PG17 -16824.491247  12962.367783  16444.969385    697.658884  9  5  4 100       
PG18  13943.152223  -6244.400659 -21736.212141   -125.376853  7  6  6 105       
PG19  -5795.789229  14673.809106  21089.659985    272.760158  6  5  6 113       
PG20   2282.939713  24738.458112  -9655.932485    453.009945  8  3  6  97       
PG21 -21197.895845 -15903.488840   5735.317935    153.797804  8  5  6 102       
PG22   1653.994068 -15470.855454  21945.925680    419.463076  7  4  5 108       
PG23  15585.580260 -16261.766791 -13955.897297      4.669461 10  5  6 119       
PG24  21608.316892  13217.712485   8313.170727    -58.038205  6  3  6  73       
PG25  16770.449566  -6449.213720  19159.810762    416.945743  5  5  6  91       
PG26   3092.358042 -25536.089291  -5961.017382    241.135561  6  5  4 113       
PG27  -8684.181009 -13462.560818 -21482.752287    111.238972  9  6  6 114       
PG28   1016.346650 -18660.625996  18840.687904 999999.999999                    
PG29  26300.649438  -3606.061702  -1766.016474   -584.076077 10  7  5  78       
PG30  -7447.836806  14895.659317 -20547.572635   -531.471255  9  4  6 104       
PG31  -1315.875799 -20475.574902  16442.550333   -208.203344  6  4  6 103       
PG32  13259.521116 -14887.706591  17613.149271   -384.713671  6  4  4  89       
*  2023  2  3 13 15  0.00000000
PG01 -20916.964870 -12603.292549  10549.263299    216.755857  6  7  7  92       
PG02  21629.017965   8093.074028 -12282.246525   -623.275784  2  3  3  87       
PG03 -14231.959052  -4051.309289  21934.619081   -367.100753  7  5  4 105       
PG04 -24989.264103  -1409.508993   9059.824482    -35.365511 11  7  8  95       
PG05   7512.282622  18924.783794 -17159.485760   -114.484597  6  4  4  96       
PG06  -1137.509358  17825.684489  19693.867114    567.821590  4  6  4 109       
PG07 -18042.769473    826.942618 -19198.607103    247.701990  8  8  4 124       
PG08 -17690.073289  -8453.251432 -18148.940654   -106.714683  8  7  5 118       
PG09 -25386.500034   7750.476730  -1586.696513   -224.983141  7  8  7  97       
PG10  11226.592920 -23015.195168  -6230.724610    -23.147344  8  5  5  95       
PG11  10092.414996  22494.352673   9935.800674    -94.579195  6  4  7  98       
PG12  13444.854311   6688.058396  21632.587683   -335.889304  5     2  90       
PG13  10032.407670  13393.382876 -20845.897316    470.099119  6  3  5  88       
PG14 -13522.884462  21143.429282  -8488.717087    -35.607289  6  4  4  99       
PG15  18782.886273   7046.242358 -17987.422301     10.230306 10  3  8  79       
PG16  -3422.240295 -21014.739564 -15873.947529   -521.613046  9  4  7  98       
PG17 -18514.088822  13060.920210  14373.706678    697.660553  9  5  5  82       
PG18  15500.001474  -4353.663757 -21147.207395   -125.390923  8  6  6 102       
PG19  -8202.799955  14815.260511  20158.062513    272.764975  7  5  6 110       
PG20   1877.294355  25642.417828  -7061.428510    453.007983  7  2  6  85       
PG21 -21376.941761 -16326.455141   2981.571537    153.797789  7  4  6 101       
PG22   4035.588650 -15703.983419  21441.055855    419.470669  7  4  5 104       
PG23  15248.527007 -14565.777768 -16056.284569      4.670696 10  5  6 109       
PG24  22014.647371  14003.534644   5690.601736    -58.052912  6  3  6  74       
PG25  16172.641830  -4196.764382  20274.746754    416.948556  4  5  6  85       
PG26   3561.167813 -25949.000508  -3204.796646    241.135855  5  4  4 106       
PG27  -6309.729771 -13971.459879 -21949.650453    111.230646  8  5  6 111       
PG28   2636.452267 -17117.358660  20103.811071 999999.999999                    
PG29  26356.952476  -3412.088364   1119.426316   -584.078099  9  7  5  75       
PG30  -9085.811635  13118.145104 -21113.633859   -531.470183  8  4  5 123       
PG31    137.110800 -19050.166542  18145.317989   -208.204467  6  5  5  95       
PG32  15144.320853 -15110.019841  15774.262011   -384.724444  6  4  4  74       
EOF
